QIANFAN-25              
1 61558U 24185G   25294.97871050  .00000798  00000+0  48010-3 0  9993
2 61558  88.9767  84.0407 0010554 104.8638 255.3714 14.05834706 62238
QIANFAN-26              
1 61559U 24185H   25294.89483867  .00000450  00000+0  43771-3 0  9994
2 61559  88.9767  85.3406 0006434 152.9345 207.2158 13.77768083 61535
QIANFAN-27              
1 61560U 24185J   25294.93876013  .00001200  00000+0  48528-3 0  9999
2 61560  88.9763  83.0108 0010066  98.3567 261.8769 14.27233488 62775
QIANFAN-28              
1 61561U 24185K   25294.94521427  .00001499  00000+0  60015-3 0  9992
2 61561  88.9779  83.0090 0009221  98.2390 261.9851 14.27869255 62788
QIANFAN-29              
1 61562U 24185L   25294.96870920  .00000262  00000+0  38760-3 0  9999
2 61562  88.9740  86.6549 0009746 191.3756 168.7176 13.50984387 60802
QIANFAN-30              
1 61563U 24185M   25294.97850979  .00000252  00000+0  37735-3 0  9993
2 61563  88.9760  86.1594 0007732 172.9209 187.2052 13.49961581 61080
QIANFAN-31              
1 61564U 24185N   25294.95597743  .00000284  00000+0  37712-3 0  9999
2 61564  88.9745  86.0456 0007458 168.6052 191.5273 13.57935342 61137
QIANFAN-32              
1 61565U 24185P   25294.97557723  .00000246  00000+0  36457-3 0  9999
2 61565  88.9803  86.2782 0008698 202.4783 157.5989 13.50712878 61059
